[{"OBJECT_NAME":"STARLINK-2017","OBJECT_ID":"2021-005C","EPOCH":"2026-03-09T23:08:49.138368","MEAN_MOTION":15.30176805,"ECCENTRICITY":0.00013958,"INCLINATION":53.1609,"RA_OF_ASC_NODE":12.3908,"ARG_OF_PERICENTER":86.6287,"MEAN_ANOMALY":273.4873,"EPHEMERIS_TYPE":0,"CLASSIFICATION_TYPE":"U","NORAD_CAT_ID":47351,"ELEMENT_SET_NO":999,"REV_AT_EPOCH":28376,"BSTAR":-0.00036741012,"MEAN_MOTION_DOT":-0.00011217,"MEAN_MOTION_DDOT":0},{"OBJECT_NAME":"JILIN-1 GAOFEN 03D47","OBJECT_ID":"2022-167L","EPOCH":"2026-03-09T22:56:46.924224","MEAN_MOTION":15.31686941,"ECCENTRICITY":0.00089304,"INCLINATION":97.6835,"RA_OF_ASC_NODE":234.6581,"ARG_OF_PERICENTER":110.4031,"MEAN_ANOMALY":249.8169,"EPHEMERIS_TYPE":0,"CLASSIFICATION_TYPE":"U","NORAD_CAT_ID":54692,"ELEMENT_SET_NO":999,"REV_AT_EPOCH":18014,"BSTAR":0.00047294748,"MEAN_MOTION_DOT":0.00014417,"MEAN_MOTION_DDOT":0}]
